[{"OBJECT_NAME":"UK-DMC 2","OBJECT_ID":"2009-041C","EPOCH":"2026-03-09T23:23:59.777088","MEAN_MOTION":14.75853536,"ECCENTRICITY":0.00010983,"INCLINATION":97.8657,"RA_OF_ASC_NODE":206.4708,"ARG_OF_PERICENTER":90.2478,"MEAN_ANOMALY":269.8858,"EPHEMERIS_TYPE":0,"CLASSIFICATION_TYPE":"U","NORAD_CAT_ID":35683,"ELEMENT_SET_NO":999,"REV_AT_EPOCH":89193,"BSTAR":0.00020221401,"MEAN_MOTION_DOT":1.338e-5,"MEAN_MOTION_DDOT":0},{"OBJECT_NAME":"KINEIS-2D","OBJECT_ID":"2025-028C","EPOCH":"2026-03-09T16:55:19.493472","MEAN_MOTION":14.75343562,"ECCENTRICITY":0.00040948,"INCLINATION":97.9409,"RA_OF_ASC_NODE":123.0354,"ARG_OF_PERICENTER":146.2711,"MEAN_ANOMALY":213.876,"EPHEMERIS_TYPE":0,"CLASSIFICATION_TYPE":"U","NORAD_CAT_ID":62930,"ELEMENT_SET_NO":999,"REV_AT_EPOCH":5804,"BSTAR":0.0003359917,"MEAN_MOTION_DOT":2.229e-5,"MEAN_MOTION_DDOT":0}]
